[{"OBJECT_NAME":"STARLINK-1716","OBJECT_ID":"2020-073C","EPOCH":"2026-03-10T00:00:02.999808","MEAN_MOTION":15.64601667,"ECCENTRICITY":0.00063571,"INCLINATION":53.0437,"RA_OF_ASC_NODE":199.6239,"ARG_OF_PERICENTER":339.4372,"MEAN_ANOMALY":32.4573,"EPHEMERIS_TYPE":0,"CLASSIFICATION_TYPE":"U","NORAD_CAT_ID":46672,"ELEMENT_SET_NO":999,"REV_AT_EPOCH":594,"BSTAR":1.2024739e-5,"MEAN_MOTION_DOT":6.3e-6,"MEAN_MOTION_DDOT":0},{"OBJECT_NAME":"STARLINK-2021","OBJECT_ID":"2021-009BJ","EPOCH":"2026-03-09T21:25:11.703648","MEAN_MOTION":15.65170997,"ECCENTRICITY":0.00069123,"INCLINATION":53.0451,"RA_OF_ASC_NODE":334.9816,"ARG_OF_PERICENTER":125.4703,"MEAN_ANOMALY":234.6958,"EPHEMERIS_TYPE":0,"CLASSIFICATION_TYPE":"U","NORAD_CAT_ID":47604,"ELEMENT_SET_NO":999,"REV_AT_EPOCH":28147,"BSTAR":0.00097097942,"MEAN_MOTION_DOT":0.00098541,"MEAN_MOTION_DDOT":0}]
